[{"OBJECT_NAME":"ISS OBJECT XY","OBJECT_ID":"1998-067XY","EPOCH":"2026-04-24T12:19:15.401280","MEAN_MOTION":15.73797656,"ECCENTRICITY":0.0007788,"INCLINATION":51.6237,"RA_OF_ASC_NODE":193.6136,"ARG_OF_PERICENTER":346.4458,"MEAN_ANOMALY":13.633,"EPHEMERIS_TYPE":0,"CLASSIFICATION_TYPE":"U","NORAD_CAT_ID":66912,"ELEMENT_SET_NO":999,"REV_AT_EPOCH":2234,"BSTAR":0.00076767,"MEAN_MOTION_DOT":0.00111756,"MEAN_MOTION_DDOT":0},{"OBJECT_NAME":"KNACKSAT-2","OBJECT_ID":"1998-067XZ","EPOCH":"2026-04-24T12:31:14.760768","MEAN_MOTION":15.55489926,"ECCENTRICITY":0.0012238,"INCLINATION":51.6296,"RA_OF_ASC_NODE":203.4596,"ARG_OF_PERICENTER":358.7726,"MEAN_ANOMALY":1.3233,"EPHEMERIS_TYPE":0,"CLASSIFICATION_TYPE":"U","NORAD_CAT_ID":67683,"ELEMENT_SET_NO":999,"REV_AT_EPOCH":1191,"BSTAR":0.00049127,"MEAN_MOTION_DOT":0.00033944,"MEAN_MOTION_DDOT":0},{"OBJECT_NAME":"CORAL","OBJECT_ID":"1998-067YA","EPOCH":"2026-04-24T14:44:36.040128","MEAN_MOTION":15.62360532,"ECCENTRICITY":0.0016157,"INCLINATION":51.6267,"RA_OF_ASC_NODE":201.0725,"ARG_OF_PERICENTER":351.974,"MEAN_ANOMALY":8.0993,"EPHEMERIS_TYPE":0,"CLASSIFICATION_TYPE":"U","NORAD_CAT_ID":67684,"ELEMENT_SET_NO":999,"REV_AT_EPOCH":1195,"BSTAR":0.00087234,"MEAN_MOTION_DOT":0.00079492,"MEAN_MOTION_DDOT":0},{"OBJECT_NAME":"GXIBA-1","OBJECT_ID":"1998-067YB","EPOCH":"2026-04-24T13:32:17.655072","MEAN_MOTION":15.56304359,"ECCENTRICITY":0.001419,"INCLINATION":51.629,"RA_OF_ASC_NODE":202.9919,"ARG_OF_PERICENTER":356.2208,"MEAN_ANOMALY":3.8674,"EPHEMERIS_TYPE":0,"CLASSIFICATION_TYPE":"U","NORAD_CAT_ID":67685,"ELEMENT_SET_NO":999,"REV_AT_EPOCH":1192,"BSTAR":0.00053596,"MEAN_MOTION_DOT":0.00038288,"MEAN_MOTION_DDOT":0},{"OBJECT_NAME":"UITMSAT-2","OBJECT_ID":"1998-067YC","EPOCH":"2026-04-24T11:07:08.858208","MEAN_MOTION":15.57859659,"ECCENTRICITY":0.0011209,"INCLINATION":51.6292,"RA_OF_ASC_NODE":203.072,"ARG_OF_PERICENTER":336.7445,"MEAN_ANOMALY":23.3038,"EPHEMERIS_TYPE":0,"CLASSIFICATION_TYPE":"U","NORAD_CAT_ID":67686,"ELEMENT_SET_NO":999,"REV_AT_EPOCH":1191,"BSTAR":0.00063731,"MEAN_MOTION_DOT":0.00048355,"MEAN_MOTION_DDOT":0},{"OBJECT_NAME":"HMU-SAT2","OBJECT_ID":"1998-067YD","EPOCH":"2026-04-24T13:46:45.009120","MEAN_MOTION":15.55967631,"ECCENTRICITY":0.0010612,"INCLINATION":51.6295,"RA_OF_ASC_NODE":203.0652,"ARG_OF_PERICENTER":338.7836,"MEAN_ANOMALY":21.2714,"EPHEMERIS_TYPE":0,"CLASSIFICATION_TYPE":"U","NORAD_CAT_ID":67687,"ELEMENT_SET_NO":999,"REV_AT_EPOCH":1184,"BSTAR":0.00052751,"MEAN_MOTION_DOT":0.00037127,"MEAN_MOTION_DDOT":0},{"OBJECT_NAME":"LEOPARD","OBJECT_ID":"1998-067YE","EPOCH":"2026-04-24T13:03:33.031584","MEAN_MOTION":15.57160432,"ECCENTRICITY":0.0010797,"INCLINATION":51.6296,"RA_OF_ASC_NODE":202.862,"ARG_OF_PERICENTER":337.4785,"MEAN_ANOMALY":22.5731,"EPHEMERIS_TYPE":0,"CLASSIFICATION_TYPE":"U","NORAD_CAT_ID":67688,"ELEMENT_SET_NO":999,"REV_AT_EPOCH":1184,"BSTAR":0.00060874,"MEAN_MOTION_DOT":0.00044933,"MEAN_MOTION_DDOT":0},{"OBJECT_NAME":"CREW DRAGON 12","OBJECT_ID":"2026-031A","EPOCH":"2026-04-24T15:38:15.753408","MEAN_MOTION":15.48932066,"ECCENTRICITY":0.0006889,"INCLINATION":51.632,"RA_OF_ASC_NODE":205.075,"ARG_OF_PERICENTER":346.1357,"MEAN_ANOMALY":13.9441,"EPHEMERIS_TYPE":0,"CLASSIFICATION_TYPE":"U","NORAD_CAT_ID":67796,"ELEMENT_SET_NO":999,"REV_AT_EPOCH":56360,"BSTAR":0.00017883,"MEAN_MOTION_DOT":9.395e-5,"MEAN_MOTION_DDOT":0},{"OBJECT_NAME":"PROGRESS-MS 33","OBJECT_ID":"2026-058A","EPOCH":"2026-04-24T15:38:15.753408","MEAN_MOTION":15.48932066,"ECCENTRICITY":0.0006889,"INCLINATION":51.632,"RA_OF_ASC_NODE":205.075,"ARG_OF_PERICENTER":346.1357,"MEAN_ANOMALY":13.9441,"EPHEMERIS_TYPE":0,"CLASSIFICATION_TYPE":"U","NORAD_CAT_ID":68319,"ELEMENT_SET_NO":999,"REV_AT_EPOCH":511,"BSTAR":0.00017883,"MEAN_MOTION_DOT":9.395e-5,"MEAN_MOTION_DDOT":0},{"OBJECT_NAME":"CYGNUS NG-24","OBJECT_ID":"2026-079A","EPOCH":"2026-04-23T14:51:45.400608","MEAN_MOTION":15.48913482,"ECCENTRICITY":0.0006828,"INCLINATION":51.6319,"RA_OF_ASC_NODE":210.1816,"ARG_OF_PERICENTER":342.1779,"MEAN_ANOMALY":17.8969,"EPHEMERIS_TYPE":0,"CLASSIFICATION_TYPE":"U","NORAD_CAT_ID":68689,"ELEMENT_SET_NO":999,"REV_AT_EPOCH":191,"BSTAR":0.00017870385,"MEAN_MOTION_DOT":9.382e-5,"MEAN_MOTION_DDOT":0}]
