ISS OBJECT XY           
1 66912U 98067XY  26114.51337270  .00111756  00000+0  76767-3 0  9992
2 66912  51.6237 193.6136 0007788 346.4458  13.6330 15.73797656 22346
KNACKSAT-2              
1 67683U 98067XZ  26114.52169862  .00033944  00000+0  49127-3 0  9991
2 67683  51.6296 203.4596 0012238 358.7726   1.3233 15.55489926 11912
CORAL                   
1 67684U 98067YA  26114.61430602  .00079492  00000+0  87234-3 0  9994
2 67684  51.6267 201.0725 0016157 351.9740   8.0993 15.62360532 11954
GXIBA-1                 
1 67685U 98067YB  26114.56409323  .00038288  00000+0  53596-3 0  9997
2 67685  51.6290 202.9919 0014190 356.2208   3.8674 15.56304359 11922
UITMSAT-2               
1 67686U 98067YC  26114.46329697  .00048355  00000+0  63731-3 0  9990
2 67686  51.6292 203.0720 0011209 336.7445  23.3038 15.57859659 11910
HMU-SAT2                
1 67687U 98067YD  26114.57413205  .00037127  00000+0  52751-3 0  9997
2 67687  51.6295 203.0652 0010612 338.7836  21.2714 15.55967631 11849
LEOPARD                 
1 67688U 98067YE  26114.54413231  .00044933  00000+0  60874-3 0  9992
2 67688  51.6296 202.8620 0010797 337.4785  22.5731 15.57160432 11845
CREW DRAGON 12          
1 67796U 26031A   26114.65157122  .00009395  00000+0  17883-3 0  9995
2 67796  51.6320 205.0750 0006889 346.1357  13.9441 15.48932066563609
PROGRESS-MS 33          
1 68319U 26058A   26114.65157122  .00009395  00000+0  17883-3 0  9996
2 68319  51.6320 205.0750 0006889 346.1357  13.9441 15.48932066  5118
CYGNUS NG-24            
1 68689U 26079A   26113.61927547  .00009382  00000+0  17870-3 0  9992
2 68689  51.6319 210.1816 0006828 342.1779  17.8969 15.48913482  1916
